{"type":"FeatureCollection","features":[{"type":"Feature","properties":{"DS_No":"2926","Name":"5D1","Lo":29,"Y":88506.556,"X":2886191.981,"Height":1520.807,"Description":"5DGeo Control"},"geometry":{"type":"Point","coordinates":[28.1153835930383,-26.0817502823196,0]}},{"type":"Feature","properties":{"DS_No":"2926","Name":"5D1X","Lo":29,"Y":88494.664,"X":2886208.729,"Height":1521.436,"Description":"5DGeo Control"},"geometry":{"type":"Point","coordinates":[28.11550130526521,-26.0819021626732,0]}},{"type":"Feature","properties":{"DS_No":"2926","Name":"5D1Y","Lo":29,"Y":88495.756,"X":2886227.306,"Height":1521.513,"Description":"5DGeo Control"},"geometry":{"type":"Point","coordinates":[28.115489131619,-26.0820697544331,0]}},{"type":"Feature","properties":{"DS_No":"2926","Name":"5D2","Lo":29,"Y":93986.985,"X":2881512.844,"Height":1427.843,"Description":"5DGeo Control"},"geometry":{"type":"Point","coordinates":[28.0609495503239,-26.0391751166238,0]}},{"type":"Feature","properties":{"DS_No":"2926","Name":"5D2X","Lo":29,"Y":93988.214,"X":2881480.158,"Height":1426.874,"Description":"5DGeo Control"},"geometry":{"type":"Point","coordinates":[28.0609396219588,-26.0388800462332,0]}},{"type":"Feature","properties":{"DS_No":"2926","Name":"5D2Y","Lo":29,"Y":93977.922,"X":2881477.082,"Height":1426.393,"Description":"5DGeo Control"},"geometry":{"type":"Point","coordinates":[28.0610426620423,-26.038852953696,0]}},{"type":"Feature","properties":{"DS_No":"2926","Name":"5D3","Lo":29,"Y":98549.223,"X":2881911.068,"Height":1551.359,"Description":"5DGeo Control"},"geometry":{"type":"Point","coordinates":[28.0153421748041,-26.0424655799119,0]}},{"type":"Feature","properties":{"DS_No":"2926","Name":"5D3X","Lo":29,"Y":98532.589,"X":2881931.762,"Height":1551.683,"Description":"5DGeo Control"},"geometry":{"type":"Point","coordinates":[28.0155067946096,-26.0426534729943,0]}},{"type":"Feature","properties":{"DS_No":"2926","Name":"5D3Y-N8","Lo":29,"Y":98517.883,"X":2881945.901,"Height":1551.811,"Description":"5DGeo Control"},"geometry":{"type":"Point","coordinates":[28.0156526474717,-26.0427820767019,0]}},{"type":"Feature","properties":{"DS_No":"2926","Name":"5D6","Lo":29,"Y":86428.99,"X":2889965.103,"Height":1622.452,"Description":"5DGeo Control"},"geometry":{"type":"Point","coordinates":[28.1358965988272,-26.1159288586745,0]}},{"type":"Feature","properties":{"DS_No":"2926","Name":"5D6X","Lo":29,"Y":86472.792,"X":2889982.966,"Height":1620.416,"Description":"5DGeo Control"},"geometry":{"type":"Point","coordinates":[28.1354575269542,-26.1160874482871,0]}},{"type":"Feature","properties":{"DS_No":"2926","Name":"5D6Y","Lo":29,"Y":86474.415,"X":2889974.191,"Height":1620.247,"Description":"5DGeo Control"},"geometry":{"type":"Point","coordinates":[28.1354418846308,-26.1160081559823,0]}},{"type":"Feature","properties":{"DS_No":"2926","Name":"5D7","Lo":29,"Y":86763.111,"X":2893641.221,"Height":1573.252,"Description":"5DGeo Control"},"geometry":{"type":"Point","coordinates":[28.1323112684426,-26.1490859264621,0]}},{"type":"Feature","properties":{"DS_No":"2926","Name":"5D7X","Lo":29,"Y":86763.179,"X":2893651.578,"Height":1573.384,"Description":"5DGeo Control"},"geometry":{"type":"Point","coordinates":[28.1323098971851,-26.1491793945279,0]}},{"type":"Feature","properties":{"DS_No":"2926","Name":"5D7Y","Lo":29,"Y":86732.397,"X":2893638.53,"Height":1573.167,"Description":"5DGeo Control"},"geometry":{"type":"Point","coordinates":[28.1326185802562,-26.1490634899631,0]}},{"type":"Feature","properties":{"DS_No":"2926","Name":"5D7Z","Lo":29,"Y":86733.978,"X":2893634.998,"Height":1573.132,"Description":"5DGeo Control"},"geometry":{"type":"Point","coordinates":[28.1326030063186,-26.1490315183752,0]}},{"type":"Feature","properties":{"DS_No":"2926","Name":"5D9","Lo":29,"Y":96813.37,"X":2897521.891,"Height":1720.531,"Description":"5DGeo Control"},"geometry":{"type":"Point","coordinates":[28.0315236092996,-26.1834675266337,0]}},{"type":"Feature","properties":{"DS_No":"2926","Name":"5D9X","Lo":29,"Y":96789.413,"X":2897498.61,"Height":1721.666,"Description":"5DGeo Control"},"geometry":{"type":"Point","coordinates":[28.0317649732876,-26.1832590345196,0]}},{"type":"Feature","properties":{"DS_No":"2926","Name":"5D9Y","Lo":29,"Y":96780.373,"X":2897518.956,"Height":1721.114,"Description":"5DGeo Control"},"geometry":{"type":"Point","coordinates":[28.0318538773283,-26.1834432599417,0]}},{"type":"Feature","properties":{"DS_No":"2926","Name":"5D13","Lo":29,"Y":88063.69,"X":2878369.49,"Height":1537.34,"Description":"5DGeo Control"},"geometry":{"type":"Point","coordinates":[28.1203366667273,-26.0111784136728,0]}},{"type":"Feature","properties":{"DS_No":"2926","Name":"5D14","Lo":29,"Y":88058.83,"X":2878354.38,"Height":1537.94,"Description":"5DGeo Control"},"geometry":{"type":"Point","coordinates":[28.12038622459371,-26.0110423387446,0]}},{"type":"Feature","properties":{"DS_No":"2926","Name":"5D25","Lo":29,"Y":94076.038,"X":2893441.489,"Height":1626.624,"Description":"5DGeo Control"},"geometry":{"type":"Point","coordinates":[28.0591991673809,-26.146824298759,0]}},{"type":"Feature","properties":{"DS_No":"2926","Name":"5D26","Lo":29,"Y":94090.252,"X":2893439.565,"Height":1626.298,"Description":"5DGeo Control"},"geometry":{"type":"Point","coordinates":[28.0590571758272,-26.1468060065942,0]}},{"type":"Feature","properties":{"DS_No":"2926","Name":"5D27","Lo":29,"Y":93276.023,"X":2892336.316,"Height":1591.813,"Description":"5DGeo Control"},"geometry":{"type":"Point","coordinates":[28.0672780811016,-26.1369022817223,0]}},{"type":"Feature","properties":{"DS_No":"2926","Name":"5D28","Lo":29,"Y":93276.879,"X":2892342.243,"Height":1591.805,"Description":"5DGeo Control"},"geometry":{"type":"Point","coordinates":[28.0672690973414,-26.1369557167603,0]}},{"type":"Feature","properties":{"DS_No":"2926","Name":"5D29","Lo":29,"Y":93006.388,"X":2891485.887,"Height":1581.803,"Description":"5DGeo Control"},"geometry":{"type":"Point","coordinates":[28.0700348302572,-26.12924468190131,0]}},{"type":"Feature","properties":{"DS_No":"2926","Name":"5D30","Lo":29,"Y":92999.724,"X":2891481.238,"Height":1581.343,"Description":"5DGeo Control"},"geometry":{"type":"Point","coordinates":[28.0701017884224,-26.1292031550932,0]}},{"type":"Feature","properties":{"DS_No":"2926","Name":"5D31","Lo":29,"Y":94520.381,"X":2895500.992,"Height":1668.531,"Description":"5DGeo Control"},"geometry":{"type":"Point","coordinates":[28.0546062244949,-26.1653818543505,0]}},{"type":"Feature","properties":{"DS_No":"2926","Name":"5D32","Lo":29,"Y":94510.82,"X":2895504.123,"Height":1668.529,"Description":"5DGeo Control"},"geometry":{"type":"Point","coordinates":[28.0547016154772,-26.1654107388697,0]}},{"type":"Feature","properties":{"DS_No":"2926","Name":"5D33","Lo":29,"Y":86396.336,"X":2897982.209,"Height":1655.351,"Description":"5DGeo Control"},"geometry":{"type":"Point","coordinates":[28.13569012304781,-26.1882854199606,0]}},{"type":"Feature","properties":{"DS_No":"2926","Name":"5D34","Lo":29,"Y":86391.243,"X":2897957.365,"Height":1655.478,"Description":"5DGeo Control"},"geometry":{"type":"Point","coordinates":[28.1357427233313,-26.1880615093197,0]}},{"type":"Feature","properties":{"DS_No":"2926","Name":"5D35","Lo":29,"Y":86299.434,"X":2895801.808,"Height":1619.378,"Description":"5DGeo Control"},"geometry":{"type":"Point","coordinates":[28.1368044194457,-26.1686131274528,0]}},{"type":"Feature","properties":{"DS_No":"2926","Name":"5D36","Lo":29,"Y":86305.092,"X":2895806.758,"Height":1619.177,"Description":"5DGeo Control"},"geometry":{"type":"Point","coordinates":[28.136747502406,-26.16865746193699,0]}},{"type":"Feature","properties":{"DS_No":"2926","Name":"5D37","Lo":29,"Y":86205.296,"X":2900943.146,"Height":1658.156,"Description":"5DGeo Control"},"geometry":{"type":"Point","coordinates":[28.1374042167963,-26.2150192522401,0]}},{"type":"Feature","properties":{"DS_No":"2926","Name":"5D38","Lo":29,"Y":86211.444,"X":2900928.829,"Height":1658.181,"Description":"5DGeo Control"},"geometry":{"type":"Point","coordinates":[28.1373436564574,-26.2148896729517,0]}},{"type":"Feature","properties":{"DS_No":"2926","Name":"5D40","Lo":29,"Y":88283.717,"X":2905533.638,"Height":1598.193,"Description":"5DGeo Control"},"geometry":{"type":"Point","coordinates":[28.1162956925418,-26.2563216134092,0]}},{"type":"Feature","properties":{"DS_No":"2926","Name":"5D41","Lo":29,"Y":88287.924,"X":2905528.001,"Height":1598.582,"Description":"5DGeo Control"},"geometry":{"type":"Point","coordinates":[28.1162539702403,-26.2562704812454,0]}},{"type":"Feature","properties":{"DS_No":"2926","Name":"5D42","Lo":29,"Y":93884.168,"X":2906651.934,"Height":1720.262,"Description":"5DGeo Control"},"geometry":{"type":"Point","coordinates":[28.0601607773345,-26.2660580732124,0]}},{"type":"Feature","properties":{"DS_No":"2926","Name":"5D43","Lo":29,"Y":93873.57,"X":2906666.898,"Height":1719.825,"Description":"5DGeo Control"},"geometry":{"type":"Point","coordinates":[28.0602657712516,-26.26619381308,0]}},{"type":"Feature","properties":{"DS_No":"2926","Name":"5D44","Lo":29,"Y":96880.414,"X":2906577.413,"Height":1728.982,"Description":"5DGeo Control"},"geometry":{"type":"Point","coordinates":[28.0301754543534,-26.2651861127838,0]}},{"type":"Feature","properties":{"DS_No":"2926","Name":"5D45","Lo":29,"Y":96877.537,"X":2906584.497,"Height":1728.639,"Description":"5DGeo Control"},"geometry":{"type":"Point","coordinates":[28.0302037201945,-26.2652502376763,0]}},{"type":"Feature","properties":{"DS_No":"2926","Name":"5D46","Lo":29,"Y":99072.926,"X":2905856.264,"Height":1761.647,"Description":"5DGeo Control"},"geometry":{"type":"Point","coordinates":[28.0082851304156,-26.258528156294,0]}},{"type":"Feature","properties":{"DS_No":"2926","Name":"5D47","Lo":29,"Y":99079.325,"X":2905860.034,"Height":1761.249,"Description":"5DGeo Control"},"geometry":{"type":"Point","coordinates":[28.0082207954359,-26.2585617366314,0]}},{"type":"Feature","properties":{"DS_No":"2926","Name":"5D48","Lo":29,"Y":96462.1,"X":2897125.84,"Height":1743.555,"Description":"5DGeo Control"},"geometry":{"type":"Point","coordinates":[28.0350665928365,-26.1799168744526,0]}},{"type":"Feature","properties":{"DS_No":"2926","Name":"5D49","Lo":29,"Y":96462.463,"X":2897130.693,"Height":1743.135,"Description":"5DGeo Control"},"geometry":{"type":"Point","coordinates":[28.0350626013717,-26.1799606471635,0]}},{"type":"Feature","properties":{"DS_No":"2926","Name":"5D50","Lo":29,"Y":97043.295,"X":2898879.498,"Height":1734.287,"Description":"5DGeo Control"},"geometry":{"type":"Point","coordinates":[28.0291222455107,-26.1957040404012,0]}},{"type":"Feature","properties":{"DS_No":"2926","Name":"5D51","Lo":29,"Y":97038.897,"X":2898883.019,"Height":1734.08,"Description":"5DGeo Control"},"geometry":{"type":"Point","coordinates":[28.0291659771377,-26.1957361132945,0]}},{"type":"Feature","properties":{"DS_No":"2926","Name":"5D52","Lo":29,"Y":96264.048,"X":2900646.565,"Height":1741.814,"Description":"5DGeo Control"},"geometry":{"type":"Point","coordinates":[28.0367861714568,-26.2117037112898,0]}},{"type":"Feature","properties":{"DS_No":"2926","Name":"5D53","Lo":29,"Y":96254.472,"X":2900646.586,"Height":1742.022,"Description":"5DGeo Control"},"geometry":{"type":"Point","coordinates":[28.0368819761063,-26.2117045425406,0]}},{"type":"Feature","properties":{"DS_No":"2926","Name":"5D54","Lo":29,"Y":97993.064,"X":2903273.37,"Height":1698.118,"Description":"5DGeo Control"},"geometry":{"type":"Point","coordinates":[28.0192889317711,-26.2352927694728,0]}},{"type":"Feature","properties":{"DS_No":"2926","Name":"5D55","Lo":29,"Y":97985.252,"X":2903272.762,"Height":1698.24,"Description":"5DGeo Control"},"geometry":{"type":"Point","coordinates":[28.01936715086419,-26.2352878159763,0]}},{"type":"Feature","properties":{"DS_No":"2926","Name":"5D57","Lo":29,"Y":99244.128,"X":2904449.081,"Height":1739.067,"Description":"5DGeo Control"},"geometry":{"type":"Point","coordinates":[28.006679632164,-26.2458170910951,0]}},{"type":"Feature","properties":{"DS_No":"2926","Name":"5D58","Lo":29,"Y":99263.557,"X":2904436.616,"Height":1738.329,"Description":"5DGeo Control"},"geometry":{"type":"Point","coordinates":[28.0064861501159,-26.245703255191,0]}},{"type":"Feature","properties":{"DS_No":"2926","Name":"5D85","Lo":29,"Y":63671.787,"X":2916645.76,"Height":1618.795,"Description":"5DGeo Control"},"geometry":{"type":"Point","coordinates":[28.3620933253681,-26.3579163340862,0]}},{"type":"Feature","properties":{"DS_No":"2926","Name":"5D86","Lo":29,"Y":63722.768,"X":2916672.834,"Height":1618.854,"Description":"5DGeo Control"},"geometry":{"type":"Point","coordinates":[28.3615812470452,-26.3581584079756,0]}},{"type":"Feature","properties":{"DS_No":"2926","Name":"5D87","Lo":29,"Y":63620.389,"X":2916592.128,"Height":1618.376,"Description":"5DGeo Control"},"geometry":{"type":"Point","coordinates":[28.3626108932882,-26.3574345845954,0]}},{"type":"Feature","properties":{"DS_No":"2925","Name":"5D88","Lo":29,"Y":88061.82,"X":2874810.67,"Height":1593.22,"Description":"5DGeo Control"},"geometry":{"type":"Point","coordinates":[28.1205944891818,-25.979059511729,0]}},{"type":"Feature","properties":{"DS_No":"2925","Name":"5D89","Lo":29,"Y":88071.03,"X":2874814.887,"Height":1593.307,"Description":"5DGeo Control"},"geometry":{"type":"Point","coordinates":[28.1205022414952,-25.9790970120974,0]}},{"type":"Feature","properties":{"DS_No":"2925","Name":"5D90","Lo":29,"Y":86282.405,"X":2872191.105,"Height":1515.752,"Description":"5DGeo Control"},"geometry":{"type":"Point","coordinates":[28.1385347326535,-25.9555241356484,0]}},{"type":"Feature","properties":{"DS_No":"2925","Name":"5D91","Lo":29,"Y":86283.923,"X":2872180.605,"Height":1514.691,"Description":"5DGeo Control"},"geometry":{"type":"Point","coordinates":[28.1385202678003,-25.9554292800472,0]}},{"type":"Feature","properties":{"DS_No":"2925","Name":"5D92","Lo":29,"Y":81594.422,"X":2871965.805,"Height":1524.292,"Description":"5DGeo Control"},"geometry":{"type":"Point","coordinates":[28.1853508532724,-25.9537616021551,0]}},{"type":"Feature","properties":{"DS_No":"2925","Name":"5D93","Lo":29,"Y":81614.286,"X":2871992.655,"Height":1524.833,"Description":"5DGeo Control"},"geometry":{"type":"Point","coordinates":[28.1851508760357,-25.9540028180682,0]}},{"type":"Feature","properties":{"DS_No":"2925","Name":"5D94","Lo":29,"Y":74961.282,"X":2874310.156,"Height":1566.13,"Description":"5DGeo Control"},"geometry":{"type":"Point","coordinates":[28.2514383838269,-25.9752779995282,0]}},{"type":"Feature","properties":{"DS_No":"2925","Name":"5D95","Lo":29,"Y":74972.584,"X":2874309.721,"Height":1565.895,"Description":"5DGeo Control"},"geometry":{"type":"Point","coordinates":[28.2513255548608,-25.975273489656,0]}},{"type":"Feature","properties":{"DS_No":"2926","Name":"5D96","Lo":29,"Y":73309.515,"X":2880466.088,"Height":1600.674,"Description":"5DGeo Control"},"geometry":{"type":"Point","coordinates":[28.2675872926412,-26.0309227643411,0]}},{"type":"Feature","properties":{"DS_No":"2926","Name":"5D97","Lo":29,"Y":73319.244,"X":2880467.248,"Height":1600.794,"Description":"5DGeo Control"},"geometry":{"type":"Point","coordinates":[28.2674900345245,-26.0309327412269,0]}},{"type":"Feature","properties":{"DS_No":"2926","Name":"5D98","Lo":29,"Y":72207.608,"X":2884133.146,"Height":1619.153,"Description":"5DGeo Control"},"geometry":{"type":"Point","coordinates":[28.2783927902401,-26.06407506480249,0]}},{"type":"Feature","properties":{"DS_No":"2926","Name":"5D99","Lo":29,"Y":72204.201,"X":2884141.483,"Height":1619.535,"Description":"5DGeo Control"},"geometry":{"type":"Point","coordinates":[28.2784263749434,-26.0641504801428,0]}},{"type":"Feature","properties":{"DS_No":"2926","Name":"5D100","Lo":29,"Y":72893.871,"X":2887128.782,"Height":1628.114,"Description":"5DGeo Control"},"geometry":{"type":"Point","coordinates":[28.2713677038072,-26.0910774958727,0]}},{"type":"Feature","properties":{"DS_No":"2926","Name":"5D101","Lo":29,"Y":72916.029,"X":2887143.244,"Height":1628.545,"Description":"5DGeo Control"},"geometry":{"type":"Point","coordinates":[28.2711454225046,-26.0912069024949,0]}},{"type":"Feature","properties":{"DS_No":"2926","Name":"5D102","Lo":29,"Y":74864.783,"X":2887945.096,"Height":1671.874,"Description":"5DGeo Control"},"geometry":{"type":"Point","coordinates":[28.2516213137049,-26.0983441824923,0]}},{"type":"Feature","properties":{"DS_No":"2926","Name":"5D103","Lo":29,"Y":74860.088,"X":2887958.907,"Height":1672.242,"Description":"5DGeo Control"},"geometry":{"type":"Point","coordinates":[28.2516674503898,-26.0984690751263,0]}},{"type":"Feature","properties":{"DS_No":"2926","Name":"5D104","Lo":29,"Y":77362.921,"X":2891987.773,"Height":1695.156,"Description":"5DGeo Control"},"geometry":{"type":"Point","coordinates":[28.2264105189269,-26.1346987422856,0]}},{"type":"Feature","properties":{"DS_No":"2926","Name":"5D105","Lo":29,"Y":77366.491,"X":2892002.308,"Height":1695.361,"Description":"5DGeo Control"},"geometry":{"type":"Point","coordinates":[28.2263739589366,-26.1348297327152,0]}},{"type":"Feature","properties":{"DS_No":"2926","Name":"5D106","Lo":29,"Y":77793.459,"X":2894127.359,"Height":1700.664,"Description":"5DGeo Control"},"geometry":{"type":"Point","coordinates":[28.2219776644404,-26.1539858289144,0]}},{"type":"Feature","properties":{"DS_No":"2926","Name":"5D107","Lo":29,"Y":77796.898,"X":2894139.239,"Height":1700.447,"Description":"5DGeo Control"},"geometry":{"type":"Point","coordinates":[28.2219425619191,-26.1540928627426,0]}},{"type":"Feature","properties":{"DS_No":"2926","Name":"5D108","Lo":29,"Y":76709.232,"X":2896324.795,"Height":1664.269,"Description":"5DGeo Control"},"geometry":{"type":"Point","coordinates":[28.2326905923085,-26.1738763619372,0]}},{"type":"Feature","properties":{"DS_No":"2926","Name":"5D109","Lo":29,"Y":76689.205,"X":2896324.839,"Height":1664.201,"Description":"5DGeo Control"},"geometry":{"type":"Point","coordinates":[28.232890902032,-26.1738778266871,0]}},{"type":"Feature","properties":{"DS_No":"2926","Name":"5D110","Lo":29,"Y":75741.904,"X":2899875.001,"Height":1640.41,"Description":"5DGeo Control"},"geometry":{"type":"Point","coordinates":[28.2421586245247,-26.2059689966228,0]}},{"type":"Feature","properties":{"DS_No":"2926","Name":"5D111","Lo":29,"Y":75742.427,"X":2899885.189,"Height":1640.297,"Description":"5DGeo Control"},"geometry":{"type":"Point","coordinates":[28.2421527965668,-26.2060609177688,0]}},{"type":"Feature","properties":{"DS_No":"2926","Name":"5D112","Lo":29,"Y":75233.523,"X":2901903.775,"Height":1614.483,"Description":"5DGeo Control"},"geometry":{"type":"Point","coordinates":[28.2471270912975,-26.2243057932464,0]}},{"type":"Feature","properties":{"DS_No":"2926","Name":"5D113","Lo":29,"Y":75222.381,"X":2901897.266,"Height":1614.526,"Description":"5DGeo Control"},"geometry":{"type":"Point","coordinates":[28.2472389613804,-26.2242476321904,0]}},{"type":"Feature","properties":{"DS_No":"2926","Name":"5D114","Lo":29,"Y":75384.355,"X":2904759.572,"Height":1613.656,"Description":"5DGeo Control"},"geometry":{"type":"Point","coordinates":[28.2454514159077,-26.2500719226544,0]}},{"type":"Feature","properties":{"DS_No":"2926","Name":"5D115","Lo":29,"Y":75381.152,"X":2904740.929,"Height":1613.926,"Description":"5DGeo Control"},"geometry":{"type":"Point","coordinates":[28.2454845604864,-26.2499038351696,0]}},{"type":"Feature","properties":{"DS_No":"2926","Name":"5D130","Lo":29,"Y":93883.606,"X":2901206.342,"Height":1700.389,"Description":"5DGeo Control"},"geometry":{"type":"Point","coordinates":[28.0605616098564,-26.2169131262362,0]}},{"type":"Feature","properties":{"DS_No":"2926","Name":"5D135","Lo":29,"Y":93897.645,"X":2901196.456,"Height":1700.755,"Description":"5DGeo Control"},"geometry":{"type":"Point","coordinates":[28.0604218615255,-26.2168229895924,0]}},{"type":"Feature","properties":{"DS_No":"2926","Name":"5D136","Lo":29,"Y":90618.215,"X":2902925.495,"Height":1666.437,"Description":"5DGeo Control"},"geometry":{"type":"Point","coordinates":[28.0931128184423,-26.23263796002781,0]}},{"type":"Feature","properties":{"DS_No":"2926","Name":"5D137","Lo":29,"Y":90624.193,"X":2902935.332,"Height":1666.354,"Description":"5DGeo Control"},"geometry":{"type":"Point","coordinates":[28.0930523091271,-26.2327263597024,0]}},{"type":"Feature","properties":{"DS_No":"2926","Name":"5D138","Lo":29,"Y":85017.034,"X":2904794.053,"Height":1649.861,"Description":"5DGeo Control"},"geometry":{"type":"Point","coordinates":[28.1490403000038,-26.2498443612472,0]}},{"type":"Feature","properties":{"DS_No":"2926","Name":"5D139","Lo":29,"Y":85023.274,"X":2904790.613,"Height":1649.709,"Description":"5DGeo Control"},"geometry":{"type":"Point","coordinates":[28.1489780737702,-26.2498129454968,0]}},{"type":"Feature","properties":{"DS_No":"2926","Name":"5D140","Lo":29,"Y":81025.017,"X":2905586.537,"Height":1595.865,"Description":"5DGeo Control"},"geometry":{"type":"Point","coordinates":[28.18894458544329,-26.2572276711707,0]}},{"type":"Feature","properties":{"DS_No":"2926","Name":"5D141","Lo":29,"Y":81028.859,"X":2905592.428,"Height":1595.843,"Description":"5DGeo Control"},"geometry":{"type":"Point","coordinates":[28.188905761042,-26.2572806203889,0]}},{"type":"Feature","properties":{"DS_No":"2926","Name":"5D142","Lo":29,"Y":75406.009,"X":2904722.492,"Height":1613.6,"Description":"5DGeo Control"},"geometry":{"type":"Point","coordinates":[28.2452368563231,-26.2497361315939,0]}},{"type":"Feature","properties":{"DS_No":"2926","Name":"5D143","Lo":29,"Y":75401.625,"X":2904711.514,"Height":1613.762,"Description":"5DGeo Control"},"geometry":{"type":"Point","coordinates":[28.2452813743095,-26.2496372840297,0]}},{"type":"Feature","properties":{"DS_No":"2926","Name":"5D144","Lo":29,"Y":67836.037,"X":2905075.527,"Height":1613.182,"Description":"5DGeo Control"},"geometry":{"type":"Point","coordinates":[28.3209841396891,-26.2533004750717,0]}},{"type":"Feature","properties":{"DS_No":"2926","Name":"5D145","Lo":29,"Y":67845.511,"X":2905076.751,"Height":1613.018,"Description":"5DGeo Control"},"geometry":{"type":"Point","coordinates":[28.3208892492365,-26.2533110737422,0]}},{"type":"Feature","properties":{"DS_No":"2926","Name":"5D146","Lo":29,"Y":63991.452,"X":2906309.263,"Height":1636.304,"Description":"5DGeo Control"},"geometry":{"type":"Point","coordinates":[28.3594040712699,-26.2646121356888,0]}},{"type":"Feature","properties":{"DS_No":"2926","Name":"5D147","Lo":29,"Y":63978.207,"X":2906312.787,"Height":1636.138,"Description":"5DGeo Control"},"geometry":{"type":"Point","coordinates":[28.3595364811797,-26.2646445324261,0]}},{"type":"Feature","properties":{"DS_No":"2926","Name":"5D148","Lo":29,"Y":54657.604,"X":2907693.481,"Height":1591.883,"Description":"5DGeo Control"},"geometry":{"type":"Point","coordinates":[28.4527796638278,-26.277491803466,0]}},{"type":"Feature","properties":{"DS_No":"2926","Name":"5D149","Lo":29,"Y":54662.766,"X":2907702.023,"Height":1591.743,"Description":"5DGeo Control"},"geometry":{"type":"Point","coordinates":[28.4527276232235,-26.277568702171,0]}},{"type":"Feature","properties":{"DS_No":"2926","Name":"5D150","Lo":29,"Y":57990.417,"X":2902163.306,"Height":1595.173,"Description":"5DGeo Control"},"geometry":{"type":"Point","coordinates":[28.4196616335093,-26.22744831804,0]}},{"type":"Feature","properties":{"DS_No":"2926","Name":"5D151","Lo":29,"Y":57965.935,"X":2902155.233,"Height":1594.805,"Description":"5DGeo Control"},"geometry":{"type":"Point","coordinates":[28.4199069882569,-26.2273764440974,0]}},{"type":"Feature","properties":{"DS_No":"2926","Name":"5D152","Lo":29,"Y":60230.247,"X":2895630.433,"Height":1599.82,"Description":"5DGeo Control"},"geometry":{"type":"Point","coordinates":[28.3975510142984,-26.168393632228,0]}},{"type":"Feature","properties":{"DS_No":"2926","Name":"5D153","Lo":29,"Y":60222.657,"X":2895622.039,"Height":1599.979,"Description":"5DGeo Control"},"geometry":{"type":"Point","coordinates":[28.3976273186893,-26.1683181895191,0]}},{"type":"Feature","properties":{"DS_No":"2926","Name":"5D154","Lo":29,"Y":63086.601,"X":2895345.91,"Height":1605.57,"Description":"5DGeo Control"},"geometry":{"type":"Point","coordinates":[28.368995700844,-26.1657032887923,0]}},{"type":"Feature","properties":{"DS_No":"2926","Name":"5D155","Lo":29,"Y":63095.501,"X":2895341.342,"Height":1605.933,"Description":"5DGeo Control"},"geometry":{"type":"Point","coordinates":[28.3689069075698,-26.1656616702004,0]}},{"type":"Feature","properties":{"DS_No":"2926","Name":"5D156","Lo":29,"Y":66595.311,"X":2896529.162,"Height":1631.093,"Description":"5DGeo Control"},"geometry":{"type":"Point","coordinates":[28.3338420659204,-26.1762245628596,0]}},{"type":"Feature","properties":{"DS_No":"2926","Name":"5D157","Lo":29,"Y":66590.024,"X":2896535.071,"Height":1630.695,"Description":"5DGeo Control"},"geometry":{"type":"Point","coordinates":[28.3338946461908,-26.1762781387808,0]}},{"type":"Feature","properties":{"DS_No":"2926","Name":"5D158","Lo":29,"Y":71935.418,"X":2896572.153,"Height":1642.938,"Description":"5DGeo Control"},"geometry":{"type":"Point","coordinates":[28.280425431162,-26.176355453398,0]}},{"type":"Feature","properties":{"DS_No":"2926","Name":"5D158B","Lo":29,"Y":93752.846,"X":2884856.506,"Height":1493.272,"Description":"5DGeo Control"},"geometry":{"type":"Point","coordinates":[28.0630487021692,-26.0693667492284,0]}},{"type":"Feature","properties":{"DS_No":"2926","Name":"5D159","Lo":29,"Y":71933.749,"X":2896585.228,"Height":1642.799,"Description":"5DGeo Control"},"geometry":{"type":"Point","coordinates":[28.280441400642,-26.1764735428265,0]}},{"type":"Feature","properties":{"DS_No":"2926","Name":"5D159B","Lo":29,"Y":93794.139,"X":2884752.662,"Height":1489.85,"Description":"5DGeo Control"},"geometry":{"type":"Point","coordinates":[28.0626435315085,-26.0684268833799,0]}},{"type":"Feature","properties":{"DS_No":"2926","Name":"5D160","Lo":29,"Y":80370.836,"X":2896714.795,"Height":1696.614,"Description":"5DGeo Control"},"geometry":{"type":"Point","coordinates":[28.1960428655667,-26.1771962815926,0]}},{"type":"Feature","properties":{"DS_No":"2926","Name":"5D160B","Lo":29,"Y":93964.698,"X":2884981.286,"Height":1513.347,"Description":"5DGeo Control"},"geometry":{"type":"Point","coordinates":[28.0609227310869,-26.0704791248675,0]}},{"type":"Feature","properties":{"DS_No":"2926","Name":"5D160X","Lo":29,"Y":93970.142,"X":2884981.432,"Height":1513.312,"Description":"5DGeo Control"},"geometry":{"type":"Point","coordinates":[28.0608683194183,-26.0704800885698,0]}},{"type":"Feature","properties":{"DS_No":"2926","Name":"5D160Y","Lo":29,"Y":94005.217,"X":2884897.929,"Height":1511.404,"Description":"5DGeo Control"},"geometry":{"type":"Point","coordinates":[28.0605238331504,-26.0697241979048,0]}},{"type":"Feature","properties":{"DS_No":"2926","Name":"5D161","Lo":29,"Y":80354.713,"X":2896709.699,"Height":1696.65,"Description":"5DGeo Control"},"geometry":{"type":"Point","coordinates":[28.1962044482619,-26.1771511902037,0]}},{"type":"Feature","properties":{"DS_No":"2926","Name":"5D161B","Lo":29,"Y":94034.36,"X":2884818.345,"Height":1509.976,"Description":"5DGeo Control"},"geometry":{"type":"Point","coordinates":[28.0602383457784,-26.0690040611408,0]}},{"type":"Feature","properties":{"DS_No":"2926","Name":"5D162","Lo":29,"Y":83197.899,"X":2895447.902,"Height":1654.94,"Description":"5DGeo Control"},"geometry":{"type":"Point","coordinates":[28.1678470075932,-26.1656017481983,0]}},{"type":"Feature","properties":{"DS_No":"2926","Name":"5D163","Lo":29,"Y":83196.637,"X":2895511.899,"Height":1657.092,"Description":"5DGeo Control"},"geometry":{"type":"Point","coordinates":[28.1678555296628,-26.1661793995326,0]}},{"type":"Feature","properties":{"DS_No":"2926","Name":"5D164","Lo":29,"Y":88172.879,"X":2896775.682,"Height":1620.495,"Description":"5DGeo Control"},"geometry":{"type":"Point","coordinates":[28.1180012138051,-26.1772887340581,0]}},{"type":"Feature","properties":{"DS_No":"2926","Name":"5D165","Lo":29,"Y":88168.723,"X":2896781.887,"Height":1620.834,"Description":"5DGeo Control"},"geometry":{"type":"Point","coordinates":[28.1180423611111,-26.1773449886201,0]}},{"type":"Feature","properties":{"DS_No":"2926","Name":"5D166","Lo":29,"Y":91269.671,"X":2898336.364,"Height":1677.175,"Description":"5DGeo Control"},"geometry":{"type":"Point","coordinates":[28.0869171222635,-26.1911805384034,0]}},{"type":"Feature","properties":{"DS_No":"2926","Name":"5D167","Lo":29,"Y":91281.955,"X":2898336.629,"Height":1677.416,"Description":"5DGeo Control"},"geometry":{"type":"Point","coordinates":[28.0867942241174,-26.1911821500983,0]}},{"type":"Feature","properties":{"DS_No":"2926","Name":"5D168","Lo":29,"Y":92810.237,"X":2899460.474,"Height":1755.206,"Description":"5DGeo Control"},"geometry":{"type":"Point","coordinates":[28.071426092917,-26.2012267942635,0]}},{"type":"Feature","properties":{"DS_No":"2926","Name":"5D169","Lo":29,"Y":92802.375,"X":2899468.034,"Height":1755.421,"Description":"5DGeo Control"},"geometry":{"type":"Point","coordinates":[28.0715042034144,-26.201295529541,0]}},{"type":"Feature","properties":{"DS_No":"2926","Name":"5D170","Lo":29,"Y":70016.467,"X":2897395.332,"Height":1631.485,"Description":"5DGeo Control"},"geometry":{"type":"Point","coordinates":[28.2995752469876,-26.1838796057951,0]}},{"type":"Feature","properties":{"DS_No":"2926","Name":"5D171","Lo":29,"Y":70017.601,"X":2897402.606,"Height":1631.637,"Description":"5DGeo Control"},"geometry":{"type":"Point","coordinates":[28.2995635109297,-26.1839452009171,0]}},{"type":"Feature","properties":{"DS_No":"2926","Name":"5D172","Lo":29,"Y":91510.758,"X":2894298.659,"Height":1649.777,"Description":"5DGeo Control"},"geometry":{"type":"Point","coordinates":[28.0847900718663,-26.154725427247,0]}},{"type":"Feature","properties":{"DS_No":"2926","Name":"5D172x","Lo":29,"Y":91702.699,"X":2894271.093,"Height":1641.496,"Description":"5DGeo Control"},"geometry":{"type":"Point","coordinates":[28.0828725886869,-26.1544644363571,0]}},{"type":"Feature","properties":{"DS_No":"2925","Name":"5D173","Lo":29,"Y":84295.949,"X":2866184.213,"Height":1544.447,"Description":"5DGeo Control"},"geometry":{"type":"Point","coordinates":[28.1587513063286,-25.9014264007831,0]}},{"type":"Feature","properties":{"DS_No":"2925","Name":"5D174","Lo":29,"Y":84296.671,"X":2866200.79,"Height":1544.988,"Description":"5DGeo Control"},"geometry":{"type":"Point","coordinates":[28.1587430405604,-25.9015759729504,0]}},{"type":"Feature","properties":{"DS_No":"2925","Name":"5D175","Lo":29,"Y":81168.236,"X":2862123.871,"Height":1438.974,"Description":"5DGeo Control"},"geometry":{"type":"Point","coordinates":[28.1902124301963,-25.8649575367057,0]}},{"type":"Feature","properties":{"DS_No":"2925","Name":"5D176","Lo":29,"Y":81144.922,"X":2862138.861,"Height":1436.696,"Description":"5DGeo Control"},"geometry":{"type":"Point","coordinates":[28.1904440856445,-25.865094126434,0]}},{"type":"Feature","properties":{"DS_No":"2925","Name":"5D177","Lo":29,"Y":74689.728,"X":2855808.987,"Height":1507.018,"Description":"5DGeo Control"},"geometry":{"type":"Point","coordinates":[28.2551986469137,-25.8083075400055,0]}},{"type":"Feature","properties":{"DS_No":"2925","Name":"5D178","Lo":29,"Y":74692.374,"X":2855820.324,"Height":1506.979,"Description":"5DGeo Control"},"geometry":{"type":"Point","coordinates":[28.2551716231198,-25.808409729442,0]}},{"type":"Feature","properties":{"DS_No":"2925","Name":"5D179","Lo":29,"Y":67536.423,"X":2859379.242,"Height":1519.465,"Description":"5DGeo Control"},"geometry":{"type":"Point","coordinates":[28.3263444842254,-25.84088000932219,0]}},{"type":"Feature","properties":{"DS_No":"2925","Name":"5D180","Lo":29,"Y":67534.564,"X":2859376.096,"Height":1519.466,"Description":"5DGeo Control"},"geometry":{"type":"Point","coordinates":[28.3263631869829,-25.8408517000825,0]}},{"type":"Feature","properties":{"DS_No":"2925","Name":"5D181","Lo":29,"Y":56777.157,"X":2851761.891,"Height":1381.704,"Description":"5DGeo Control"},"geometry":{"type":"Point","coordinates":[28.4339871241959,-25.7725835043925,0]}},{"type":"Feature","properties":{"DS_No":"2925","Name":"5D182","Lo":29,"Y":56775.708,"X":2851752.46,"Height":1381.658,"Description":"5DGeo Control"},"geometry":{"type":"Point","coordinates":[28.4340019725731,-25.7724984355201,0]}},{"type":"Feature","properties":{"DS_No":"2925","Name":"5D183","Lo":29,"Y":62254.284,"X":2855956.789,"Height":1398.536,"Description":"5DGeo Control"},"geometry":{"type":"Point","coordinates":[28.3791908006728,-25.810223961076,0]}},{"type":"Feature","properties":{"DS_No":"2925","Name":"5D184","Lo":29,"Y":62254.601,"X":2855961.87,"Height":1398.62,"Description":"5DGeo Control"},"geometry":{"type":"Point","coordinates":[28.3791874006177,-25.8102698084445,0]}},{"type":"Feature","properties":{"DS_No":"2926","Name":"stx","Lo":29,"Y":87457.749,"X":2888612.994,"Height":1599.357,"Description":"5DGeo Control"},"geometry":{"type":"Point","coordinates":[28.1257029600226,-26.1036639898208,0]}},{"type":"Feature","properties":{"DS_No":"2926","Name":"sty","Lo":29,"Y":87449.84,"X":2888579.371,"Height":1599.222,"Description":"5DGeo Control"},"geometry":{"type":"Point","coordinates":[28.1257842738028,-26.1033610193447,0]}}]}